ONEWEB-0414             
1 50491U 21132Y   24296.55940854  .00000168  00000+0  39286-3 0  9996
2 50491  87.9055  95.3780 0001720 103.4000 256.7324 13.18683422142201
ONEWEB-0417             
1 50492U 21132Z   24296.49142678 -.00000309  00000+0 -81544-3 0  9991
2 50492  87.9063  95.4032 0001367  91.8589 268.2699 13.18684319142176
ONEWEB-0418             
1 50493U 21132AA  24296.50079826  .00000013  00000+0  54426-6 0  9990
2 50493  87.9060  95.4003 0001084  85.4973 274.6283 13.18686084142232
ONEWEB-0419             
1 50494U 21132AB  24296.51829915  .00000032  00000+0  47857-4 0  9993
2 50494  87.9056  95.4086 0001401  83.9366 276.1925 13.18684619142154
ONEWEB-0420             
1 50495U 21132AC  24296.48510724  .00000129  00000+0  29543-3 0  9993
2 50495  87.9056  95.4244 0001919  92.6640 267.4712 13.18687226142140
ONEWEB-0421             
1 50496U 21132AD  24296.47878656  .00000057  00000+0  11097-3 0  9999
2 50496  87.9063  95.4010 0001657 104.5055 255.6261 13.18687570142186
ONEWEB-0424             
1 50497U 21132AE  24296.51356873  .00000045  00000+0  81252-4 0  9995
2 50497  87.9059  95.3939 0001536  72.2867 287.8433 13.18683323142213
ONEWEB-0426             
1 50498U 21132AF  24296.47562171  .00000086  00000+0  18415-3 0  9996
2 50498  87.9052  95.4134 0001204 114.4816 245.6442 13.18685135142158
